Facility ID,Office name,Profit center,Reporting Office Nam,Pincode,Head Office,Division,TALUK,PLI Facility ID,SOL ID,WEGCODE,SUBDIVISION,Mobile,Plant,Latitude Actual,Longitude Actual,Delivery/Non-Deliver,Reporting Office,PLANT PORTAL,Storage Location Nam,Facility Type,Plant Name,Storage Location,PORTAL_STR_LOC,Address1,Region,Region_1,Circle,City
BO29103101003,Irumbuli BO,2912110102,Acharapakkam SO,603301,Chengalpattu HO,Chengalpattu Division,CHEYUR,PM050103004,0,WEG21325,Madurantakam Sub Division,9626122975,T131,12.3487,80.0031,Delivery,Acharapakkam SO,,B013,BO,,,,"Bajanai Koil Street, Irumbuli Village",Chennai City Region,,Tamil Nadu,CHENGALPATTU
BO29103101004,Kattugudalur BO,2912110103,Acharapakkam SO,603301,Chengalpattu HO,Chengalpattu Division,MADURANTAKAM,PM050103005,0,WEG21325,Madurantakam Sub Division,9787691801,T131,12.5102,79.8849,Delivery,Acharapakkam SO,,B014,BO,,,,"Vinayagar Koil Street, Kattukudalur",Chennai City Region,,Tamil Nadu,CHENGALPATTU
BO29103101005,Kayapakkam BO,2912110104,Acharapakkam SO,603301,Chengalpattu HO,Chengalpattu Division,MADURANTAKAM,PM050103006,0,WEG21325,Tiruchengodu Sub Division,7708486809,T131,12.5102,79.8892,Delivery,Acharapakkam SO,,B015,BO,,,,"Snagutheertha Vinayagar Koil Street,",Chennai City Region,,Tamil Nadu,CHENGALPATTU
BO29103101006,Parukkal BO,2912110105,Acharapakkam SO,603301,Chengalpattu HO,Chengalpattu Division,MADURANTAKA,PM050103007,0,WEG21325,Madurantakam Sub Division,7708928273,T131,12.43045,79.81005,Delivery,Acharapakkam SO,,B016,BO,,,,Parukkal Village,Chennai City Region,,Tamil Nadu,CHENGALPATTU
BO29103101007,Seethapuram BO,2912110106,Acharapakkam SO,603301,Chengalpattu HO,Chengalpattu Division,MADURANTAKAM,PM050103088,0,WEG21325,Madurantakam Sub Division,9176450187,T131,12.5102276,79.8849244,Delivery,Acharapakkam SO,,B017,BO,,,,"Reddiyar Street, Seethapuram",Chennai City Region,,Tamil Nadu,CHENGALPATTU
BO29103101008,Acharapakkam R.S. B.O,,Acharapakkam SO,603301,Chengalpattu HO,Chengalpattu Division,,,0,,Madurantakam Sub Division,0,,,,,Acharapakkam SO,,,BO,,,,Acharapakkam R.S.,Chennai City Region,,Tamil Nadu,Chengalpattu
BO29103104001,Palur BO,2912110401,Athurchengalpattu SO,603101,Chengalpattu HO,Chengalpattu Division,CHENGALPATTU,PM050102002,0,WEG08669,#N/A,7373611751,T131,12.760428,79.915799,Delivery,Athurchengalpattu SO,,B041,BO,,,,"Big Street, Palur Village",Chennai City Region,,Tamil Nadu,CHENGALPATTU
BO29103104002,Reddipalayam BO,2912110402,Athurchengalpattu SO,603101,Chengalpattu HO,Chengalpattu Division,CHENGALPATT,PM050102003,0,WEG08669,Chengalpattu West Sub Division,9976855822,T131,12.6840072,79.9833363,Delivery,Athurchengalpattu SO,,B042,BO,,,,"41, Kalaignar Street, Reddipalayam",Chennai City Region,,Tamil Nadu,CHENGALPATTU
BO29103104003,Thimmavaram BO,2912110403,Athurchengalpattu SO,603101,Chengalpattu HO,Chengalpattu Division,CHENGALPATTU,PM050102004,0,WEG08669,Chengalpattu West Sub Division,9942167888,T131,12.6840062,79.9833373,Delivery,Athurchengalpattu SO,,B043,BO,,,,"19/4, KCM Road, Thimmavaram",Chennai City Region,,Tamil Nadu,CHENGALPATTU
BO29103104004,Villiambakkam BO,2912110404,Athurchengalpattu SO,603101,Chengalpattu HO,Chengalpattu Division,CHENGALPATTU,PM050102005,0,WEG08669,Chengalpattu West Sub Division,9790690308,T131,12.7522646,79.9319922,Delivery,Athurchengalpattu SO,,B044,BO,,,,"375/19/2, Railway Station Road",Chennai City Region,,Tamil Nadu,CHENGALPATTU
BO29103108001,Chengattur BO,2912110801,Cheyur SO Kanchipuram,603302,Chengalpattu HO,Chengalpattu Division,CHEYUR,PM050103010,0,WEG21327,Walajapet Sub Division,9043980300,T131,12.348733,80.00314,Delivery,Cheyur SO Kanchipuram,,B081,BO,,,,"Middle Street, Chengattur",Chennai City Region,,Tamil Nadu,CHENGALPATTU
BO29103108002,Cheyyur North B.O,,Cheyur SO Kanchipuram,603302,Chengalpattu HO,Chengalpattu Division,Cheyyur,,0,,Chengalpattu West Sub Division,0,,,,Non-Delivery,Cheyur SO Kanchipuram,,,BO,,,,Cheyyur North B.O,Chennai City Region,,Tamil Nadu,Kanchipuram
BO29103108003,Irumbedu BO,2912110802,Cheyur SO Kanchipuram,603302,Chengalpattu HO,Chengalpattu Division,CHEYYUR,PM050103013,0,WEG21327,Madurantakam Sub Division,9787570454,T131,12.348731,80.003142,Delivery,Cheyur SO Kanchipuram,,B083,BO,,,,"Hospital Road, Irumbedu",Chennai City Region,,Tamil Nadu,CHENGALPATTU
BO29103108004,Nainarkuppam BO,2912110803,Cheyur SO Kanchipuram,603302,Chengalpattu HO,Chengalpattu Division,CHEYUR,PM050103014,0,WEG21327,#N/A,9994179039,T131,12.348735,80.003138,Delivery,Cheyur SO Kanchipuram,,B084,BO,,,,"261, Nainarkuppaam",Chennai City Region,,Tamil Nadu,CHENGALPATTU
BO29103108005,Palaiyur BO,2912110804,Cheyur SO Kanchipuram,603302,Chengalpattu HO,Chengalpattu Division,CHEYUR,PM050103015,0,WEG21327,Madurantakam Sub Division,8056779310,T131,12.33807,80.03173,Delivery,Cheyur SO Kanchipuram,,B085,BO,,,,"3/15, Pillaiyar Koil Street, Palaiyur",Chennai City Region,,Tamil Nadu,CHENGALPATTU
BO29103108006,Panaiyur BO,2912110805,Cheyur SO Kanchipuram,603302,Chengalpattu HO,Chengalpattu Division,CHEYUR,PM050103016,0,WEG21327,Madurantakam Sub Division,8056779310,T131,12.348731,80.003142,Delivery,Cheyur SO Kanchipuram,,B086,BO,,,,"ECR Road, Panaiyur",Chennai City Region,,Tamil Nadu,CHENGALPATTU
BO29103108007,Perumbakkam BO,2912110806,Cheyur SO Kanchipuram,603302,Chengalpattu HO,Chengalpattu Division,CHEYYUR,PM050103017,0,WEG21327,Madurantakam Sub Division,9047881869,T131,12.9000272,80.1958645,Delivery,Cheyur SO Kanchipuram,,B087,BO,,,,"1st Street, Perumbakkam",Chennai City Region,,Tamil Nadu,CHENGALPATTU
BO29103108008,Zamin Budur BO,2912110807,Cheyur SO Kanchipuram,603302,Chengalpattu HO,Chengalpattu Division,CHEYUR,PM050103018,0,WEG21327,Madurantakam Sub Division,9952473411,T131,12.33807,80.03173,Delivery,Cheyur SO Kanchipuram,,B088,BO,,,,"49, Vinayagar Koil Street, Zamin Budur",Chennai City Region,,Tamil Nadu,CHENGALPATTU
BO29103109001,Kattudevadur BO,2912110901,Chithamur SO,603313,Chengalpattu HO,Chengalpattu Division,CHEYYUR,PM050103020,0,WEG08673,Madurantakam Sub Division,9884344964,T131,12.348735,80.003138,Delivery,Chithamur SO,,B091,BO,,,,"School Street, Kattudevadur",Chennai City Region,,Tamil Nadu,CHENGALPATTU
BO29103109002,Neerpair BO,2912110902,Chithamur SO,603313,Chengalpattu HO,Chengalpattu Division,CHEYUR,PM050103069,0,WEG08673,Ranipet Sub Division,9629641087,T131,12.348731,80.003142,Delivery,Chithamur SO,,B092,BO,,,,"Vinayagar Koil Street, Neerpair",Chennai City Region,,Tamil Nadu,CHENGALPATTU
BO29103109003,Nugumbal BO,2912110903,Chithamur SO,603313,Chengalpattu HO,Chengalpattu Division,CHEYUR,PM050103070,0,WEG08673,Chengalpattu East Sub Division,9629997192,T131,12.348731,80.003142,Delivery,Chithamur SO,,B093,BO,,,,"3rd Cross Street, Nugumbal",Chennai City Region,,Tamil Nadu,CHENGALPATTU
BO29103109004,Onambakkam BO,2912110904,Chithamur SO,603313,Chengalpattu HO,Chengalpattu Division,CHEYUR,PM050103021,0,WEG08673,Madurantakam Sub Division,9382120864,T131,12.348733,80.00314,Delivery,Chithamur SO,,B094,BO,,,,"Post Office Street, Onambakkam",Chennai City Region,,Tamil Nadu,CHENGALPATTU
BO29103109005,Vilanganur BO,2912110905,Chithamur SO,603313,Chengalpattu HO,Chengalpattu Division,CHEYUR,PM050103023,0,WEG08673,Madurantakam Sub Division,9500374271,T131,12.348733,80.00314,Delivery,Chithamur SO,,B095,BO,,,,"Main Road, Vilanganur",Chennai City Region,,Tamil Nadu,CHENGALPATTU
BO29103110001,Andarkuppam BO,2912111001,Chunampet SO,603401,Chengalpattu HO,Chengalpattu Division,CHEYYUR,PM050103025,0,WEG08674,Madurantakam Sub Division,9655825056,T131,12.348734,80.003139,Delivery,Chunampet SO,,B101,BO,,,,"3, Vinayagar Koil Street, Andarkuppam",Chennai City Region,,Tamil Nadu,CHENGALPATTU
BO29103110002,Kadukkalur BO,2912111002,Chunampet SO,603401,Chengalpattu HO,Chengalpattu Division,CHEYYUR,PM050103026,0,WEG08674,#N/A,9843864273,T131,12.348733,80.00314,Delivery,Chunampet SO,,B102,BO,,,,"6, Post Office Street, Kadukkalur",Chennai City Region,,Tamil Nadu,CHENGALPATTU
BO29103110003,Puthirankottai BO,2912111003,Chunampet SO,603401,Chengalpattu HO,Chengalpattu Division,CHEYUR,PM050103089,0,WEG08674,Madurantakam Sub Division,9445283501,T131,12.348737,80.003136,Delivery,Chunampet SO,,B103,BO,,,,"1/31, Bajanai Koil Street, Puthirankotta",Chennai City Region,,Tamil Nadu,CHENGALPATTU
BO29103110004,Vannianallur BO,2912111004,Chunampet SO,603401,Chengalpattu HO,Chengalpattu Division,MADURANTAKAM,PM050103027,0,WEG08674,Madurantakam Sub Division,8760500531,T131,12.27472,79.9199,Delivery,Chunampet SO,,B104,BO,,,,"3/13, Main Road, Vannianallur",Chennai City Region,,Tamil Nadu,CHENGALPATTU
BO29103110005,Velur BO,2912111005,Chunampet SO,603401,Chengalpattu HO,Chengalpattu Division,MADURANTAKA,PM050103029,0,WEG08674,Madurantakam Sub Division,8760500531,T131,12.27472,79.9199,Delivery,Chunampet SO,,B105,BO,,,,"14/54, Pillaiyar Koil Street, Velur",Chennai City Region,,Tamil Nadu,CHENGALPATTU
BO29103111001,Kattukaranai BO,2912111101,Elapakkam SO,603201,Chengalpattu HO,Chengalpattu Division,MADURANTAKAM,PM050103031,0,WEG08675,#N/A,9176953812,T131,12.64445,79.8424,Delivery,Elapakkam SO,,B111,BO,,,,"1/42, West Mada Street, Kattukaranai",Chennai City Region,,Tamil Nadu,CHENGALPATTU
BO29103111002,Madhur BO,2912111102,Elapakkam SO,603201,Chengalpattu HO,Chengalpattu Division,MADURANTAKAM,PM050103032,0,WEG08675,Madurantakam Sub Division,9444730933,T131,12.5102226,79.8849294,Delivery,Elapakkam SO,,B112,BO,,,,"10, Mathava Perumal Koil Street, Madhur",Chennai City Region,,Tamil Nadu,CHENGALPATTU
BO29103111003,Padiri BO,2912111103,Elapakkam SO,603201,Chengalpattu HO,Chengalpattu Division,MADURANTHAKAM,PM050103033,0,WEG08675,Walajapet Sub Division,9524891562,T131,12.5102226,79.8849294,Delivery,Elapakkam SO,,B113,BO,,,,"Panchayat Office Bldg,Ellaiamman Koil St",Chennai City Region,,Tamil Nadu,CHENGALPATTU
BO29103111004,Ramapuram BO,2912111104,Elapakkam SO,603201,Chengalpattu HO,Chengalpattu Division,MADURANTAKA,PM050103034,0,WEG08675,Madurantakam Sub Division,8526399571,T131,12.5102256,79.8849264,Delivery,Elapakkam SO,,B114,BO,,,,"Bazaar St, Vandavasi Road,Elapakkam",Chennai City Region,,Tamil Nadu,CHENGALPATTU
BO29103111005,Madhur B.O,,Vellimalai S.O,606209,Kallakurichi H.O,Chennai City North Division,SANKARAPURAM,,0,,Madurantakam Sub Division,0,,,,Delivery,Vellimalai S.O,,,BO,,,,Madhur,"Central Region, Trichirapalli",,Tamil Nadu,Vriddhachalam
BO29103111006,Kattukaranai B.O,,Elapakkam SO,603201,Chengalpattu HO,Chengalpattu Division,MADURANTAKAM,,0,,#N/A,0,,,,,Elapakkam SO,,,BO,,,,Kattukaranai,Chennai City Region,,Tamil Nadu,Chengalpattu
BO29103112001,Kannivakkam BO,2912111201,Guduvancheri SO,603202,Chengalpattu HO,Chengalpattu Division,CHENGALPATTU,PM050102008,0,WEG21328,#N/A,8807863722,T131,12.84275,80.0556,Delivery,Guduvancheri SO,,B121,BO,,,,"68/2, Pillaiyar Koil Street, Kannivakkam",Chennai City Region,,Tamil Nadu,CHENGALPATTU
BO29103112002,Karanaipuduchery BO,2912111202,Guduvancheri SO,603202,Chengalpattu HO,Chengalpattu Division,CHENGALPATTU,PM050102009,0,WEG21328,Chengalpattu West Sub Division,9003108315,T131,12.6840112,79.9833323,Delivery,Guduvancheri SO,,B122,BO,,,,"2/90, Gangaiamman Koil Street, Karanaipu",Chennai City Region,,Tamil Nadu,CHENGALPATTU
BO29103112003,Kayarambedu BO,2912111203,Guduvancheri SO,603202,Chengalpattu HO,Chengalpattu Division,CHENGALPATTU,PM050102010,0,WEG21328,Chengalpattu West Sub Division,8015374366,T131,12.6840072,79.9833363,Delivery,Guduvancheri SO,,B123,BO,,,,"165, Thandumariamman Koil Street",Chennai City Region,,Tamil Nadu,CHENGALPATTU
BO29103112004,Madambakkam BO,2912111204,Guduvancheri SO,603202,Chengalpattu HO,Chengalpattu Division,CHENGALPLATTU,PM050102011,0,WEG21328,Chengalpattu West Sub Division,9790758514,T131,12.6840062,79.9833373,Delivery,Guduvancheri SO,,B124,BO,,,,"1/10, Periyar Street, Madambakkam",Chennai City Region,,Tamil Nadu,CHENGALPATTU
BO29103112005,Thangappapuram BO,2912111205,Guduvancheri SO,603202,Chengalpattu HO,Chengalpattu Division,CHENGALPATTU,PM050103096,0,WEG21328,Ramanathapuram  Sub Division,8015374366,T131,12.6840072,79.9833363,Delivery,Guduvancheri SO,,B125,BO,,,,"181, MGR Street, Thangappapuram",Chennai City Region,,Tamil Nadu,CHENGALPATTU
BO29103112007,Adhanur B.O,2912111206,Guduvancheri SO,603202,Chengalpattu HO,Chengalpattu Division,,PM050103099,0,,Vedasandur Sub Division,0,T131,,,Delivery,Guduvancheri SO,,B127,BO,,,,"Adhanur, Guduvancheri",Chennai City Region,,Tamil Nadu,CHENGALPATTU
BO29103112008,KUMIZHI BO,2912111207,Guduvancheri SO,603202,Chengalpattu HO,Chengalpattu Division,,,0,,Vriddhachalam sub dn,0,T131,12.802763,80.120115,Delivery,Guduvancheri SO,,B128,BO,,,,"Panchayat office building, , Nellikuppam Road, Kumizhi, Guduvancheri SO - 603 202.",Chennai City Region,,Tamil Nadu,CHENGALPATTU
BO29103114001,Ayapakkam BO,2912111401,Kalpakkam SO,603102,Chengalpattu HO,Chengalpattu Division,TIRUKLALIKUNDRAM,PM050101008,0,WEG21329,Chengalpattu West Sub Division,9597519997,T131,12.4676268,80.0925924,Delivery,Kalpakkam SO,,B141,BO,,,,"Puthupattinam Road, Ayapakkam",Chennai City Region,,Tamil Nadu,CHENGALPATTU
BO29103114002,Manamai BO,2912111402,Kalpakkam SO,603102,Chengalpattu HO,Chengalpattu Division,TIRUKALIKUNDRAM,PM050101009,0,WEG21329,Chengalpattu East Sub Division,9626122975,T131,12.5088,80.12641,Delivery,Kalpakkam SO,,B142,BO,,,,"148, 1st Cross Street, Manamai",Chennai City Region,,Tamil Nadu,CHENGALPATTU
BO29103114003,Melperumalcheri BO,2912111403,Kalpakkam SO,603102,Chengalpattu HO,Chengalpattu Division,CHENGALPATT,PM050101010,0,WEG21329,Madurantakam Sub Division,9941021927,T131,12.5088,80.12641,Delivery,Kalpakkam SO,,B143,BO,,,,"Anjaneyar Koil Street, Melperumalcheri",Chennai City Region,,Tamil Nadu,CHENGALPATTU
BO29103114004,Pattaraikalani BO,2912111404,Kalpakkam SO,603102,Chengalpattu HO,Chengalpattu Division,CHENGALPATT,PM050101073,0,WEG21329,Madurantakam Sub Division,9994575213,T131,12.5088,80.12641,Delivery,Kalpakkam SO,,B144,BO,,,,"Pillaiyar Koil Street, Pattaraikalani",Chennai City Region,,Tamil Nadu,CHENGALPATTU
BO29103114005,Reactor Research Centre BO,2912111405,Kalpakkam SO,603102,Chengalpattu HO,Chengalpattu Division,TIRUKALUKUNDRAM,PM050101062,0,WEG21329,Chengalpattu East Sub Division,9994575213,T131,12.5088,80.12641,Non-Delivery,Kalpakkam SO,,B145,BO,,,,"Reactor Research Centre, Kalpakkam",Chennai City Region,,Tamil Nadu,CHENGALPATTU
BO29103114006,Suradimangalam BO,2912111406,Kalpakkam SO,603102,Chengalpattu HO,Chengalpattu Division,TIRUKALIKUNDRAM,PM050101075,0,WEG21329,#N/A,8870688613,T131,12.5088,80.12641,Delivery,Kalpakkam SO,,B146,BO,,,,"Pudupattinam Road, Suradimangalam",Chennai City Region,,Tamil Nadu,CHENGALPATTU
BO29103114007,Vayalur BO,2912111407,Kalpakkam SO,603102,Chengalpattu HO,Chengalpattu Division,TIRUKALIKUNDRAM,PM050101011,0,WEG21329,Chengalpattu East Sub Division,7845593332,T131,12.4942504,80.1233105,Delivery,Kalpakkam SO,,B147,BO,,,,"103,Post Office Street, Vayalur",Chennai City Region,,Tamil Nadu,CHENGALPATTU
BO29103114008,Vazhuvadur BO,2912111408,Kalpakkam SO,603102,Chengalpattu HO,Chengalpattu Division,TIRUKALIKUNDRAM,PM050101059,0,WEG21329,Madurantakam Sub Division,9500430197,T131,12.5088,80.12641,Delivery,Kalpakkam SO,,B148,BO,,,,"Panchayat Bldg, Sadras",Chennai City Region,,Tamil Nadu,CHENGALPATTU
BO29103114009,Vengapakkam BO,2912111409,Kalpakkam SO,603102,Chengalpattu HO,Chengalpattu Division,TIRUKALIKUNDRAM,PM050101012,0,WEG21329,Chengalpattu East Sub Division,8754653724,T131,12.5502888,80.144243,Delivery,Kalpakkam SO,,B149,BO,,,,"7,Duraisamy Bldg, ECR Road, Vengapakkam",Chennai City Region,,Tamil Nadu,CHENGALPATTU
BO29103114010,Vittilapuram B.O,,Kalpakkam SO,603102,Chengalpattu HO,Chengalpattu Division,Tirukalukundram,,0,,Arakkonam Sub Division,0,,,,Delivery,Kalpakkam SO,,,BO,,,,Vittilapuram B.O,Chennai City Region,,Tamil Nadu,Kanchipuram
BO29103114011,Reactor Research Centre  B.O,,Kalpakkam SO,603102,Chengalpattu HO,Chengalpattu Division,TIRUKALUKUNDRAM,,0,,Chengalpattu East Sub Division,0,,,,,Kalpakkam SO,,,BO,,,,Reactor Research Centre,Chennai City Region,,Tamil Nadu,Chengalpattu
BO29103114012,Vittilapuram BO,2912111410,Kalpakkam SO,603102,Chengalpattu HO,Chengalpattu Division,TIRUKALIKUN,PM050101013,0,WEG21329,#N/A,9994780919,T131,12.5088,80.12641,Delivery,Kalpakkam SO,,B14C,BO,,,,"1/38,Pillaiyar Koil Street,Vittalapuram",Chennai City Region,,Tamil Nadu,CHENGALPATTU
BO29103115001,Janakipuram BO,2912111501,Karunguli SO,603303,Chengalpattu HO,Chengalpattu Division,MADURANTAKAM,PM050101015,0,WEG21330,Chengalpattu East Sub Division,9159399947,T131,12.5102276,79.8849244,Delivery,Karunguli SO,,B151,BO,,,,"Eswaran Koil Street,Janakipuram",Chennai City Region,,Tamil Nadu,CHENGALPATTU
BO29103115002,Kathiricheri BO,2912111502,Karunguli SO,603303,Chengalpattu HO,Chengalpattu Division,MADURANTAKAM,PM050101017,0,WEG21330,Chengalpattu East Sub Division,9597602940,T131,12.5102276,79.8849244,Delivery,Karunguli SO,,B152,BO,,,,"19,Pillaiyar Koil Street,Kathiricheri",Chennai City Region,,Tamil Nadu,CHENGALPATTU
BO29103115003,Keelavalam BO,2912111503,Karunguli SO,603303,Chengalpattu HO,Chengalpattu Division,MADURANTAKAM,PM050101018,0,WEG21330,Chengalpattu East Sub Division,8144883835,T131,12.5102266,79.8849254,Delivery,Karunguli SO,,B153,BO,,,,"Panchayat Bldg, Keelavalam",Chennai City Region,,Tamil Nadu,CHENGALPATTU
BO29103115004,Kinar BO,2912111504,Karunguli SO,603303,Chengalpattu HO,Chengalpattu Division,CHENGALPATTU,PM050101019,0,WEG21330,Chengalpattu East Sub Division,9894392577,T131,12.5248487,79.9178659,Delivery,Karunguli SO,,B154,BO,,,,"2,Perumal Koil Street, Kinar",Chennai City Region,,Tamil Nadu,CHENGALPATTU
BO29103115005,KinarKandigaiPudur BO,2912111505,Karunguli SO,603303,Chengalpattu HO,Chengalpattu Division,MADURANTAKA,PM050101020,0,WEG21330,Madurantakam Sub Division,9943533028,T131,12.5248487,79.9178659,Delivery,Karunguli SO,,B155,BO,,,,"270,Susaiappar Koil Street, K K Pudur",Chennai City Region,,Tamil Nadu,CHENGALPATTU
BO29103115006,Malapalayam BO,2912111506,Karunguli SO,603303,Chengalpattu HO,Chengalpattu Division,MADURANTAKA,PM050101021,0,WEG21330,Chengalpattu East Sub Division,9445296920,T131,12.5102276,79.8849244,Delivery,Karunguli SO,,B156,BO,,,,"Pillaiyar koil st, malapalayam",Chennai City Region,,Tamil Nadu,CHENGALPATTU
BO29103115007,Malayalipettai BO,2912111507,Karunguli SO,603303,Chengalpattu HO,Chengalpattu Division,MADURANTAKAM,PM050101022,0,WEG21330,Chengalpattu East Sub Division,8940471736,T131,12.53745,79.9167,Delivery,Karunguli SO,,B157,BO,,,,"NO 6 GN Pettai st , malayalipettai",Chennai City Region,,Tamil Nadu,CHENGALPATTU
BO29103115008,Melavalam BO,2912111508,Karunguli SO,603303,Chengalpattu HO,Chengalpattu Division,MADURANTAKA,PM050101023,0,WEG21330,Chengalpattu East Sub Division,9944904353,T131,12.53745,79.9167,Delivery,Karunguli SO,,B158,BO,,,,"Govt Hr Sec School St, Melavalam",Chennai City Region,,Tamil Nadu,CHENGALPATTU
BO29103115009,Pudupattu BO,2912111509,Karunguli SO,603303,Chengalpattu HO,Chengalpattu Division,CHENGALPATTU,PM050101024,0,WEG21330,Chengalpattu East Sub Division,9003395286,T131,12.6840042,79.9833393,Delivery,Karunguli SO,,B159,BO,,,,"NO.7 Pillaiyar koil street , Pudupattu",Chennai City Region,,Tamil Nadu,CHENGALPATTU
BO29103115010,Vedavakkam BO,2912111510,Karunguli SO,603303,Chengalpattu HO,Chengalpattu Division,MADURANTAKAM,PM050101025,0,WEG21330,Chengalpattu East Sub Division,9787478350,T131,12.5102266,79.8849254,Delivery,Karunguli SO,,B15A,BO,,,,"NO.29/23, Thanthoniamman koil street,",Chennai City Region,,Tamil Nadu,CHENGALPATTU
BO29103115011,Kathirichery B.O,,Karunguli SO,603303,Chengalpattu HO,Chengalpattu Division,MADURANTAKAM,,0,,Chengalpattu East Sub Division,0,,,,,Karunguli SO,,,BO,,,,Kathirichery,Chennai City Region,,Tamil Nadu,Chengalpattu
BO29103116001,Kavanur BO,2912111601,Kattankolathur SO,603203,Chengalpattu HO,Chengalpattu Division,CHENGALPATTU,PM050102015,0,WEG21331,#N/A,9788122337,T131,12.6840022,79.9833413,Delivery,Kattankolathur SO,,B161,BO,,,,"Bajanai koil street, Kavanur village",Chennai City Region,,Tamil Nadu,CHENGALPATTU
BO29103116002,Ninnakarai BO,2912111602,Kattankolathur SO,603203,Chengalpattu HO,Chengalpattu Division,CHENGALPATT,PM050102016,0,WEG21331,Chengalpattu West Sub Division,8754721300,T131,12.6840052,79.9833383,Delivery,Kattankolathur SO,,B162,BO,,,,"NO.7, Vallanchery road, Ninnakarai",Chennai City Region,,Tamil Nadu,CHENGALPATTU
BO29103117001,Kolathur BO,2912111701,Kudapakkam SO,603304,Chengalpattu HO,Chengalpattu Division,CHEYUR,PM050103036,0,WEG08677,Chengalpattu West Sub Division,9787424626,T131,12.348731,80.003142,Delivery,Kudapakkam SO,,B171,BO,,,,"2/381, School Street,Kolathur",Chennai City Region,,Tamil Nadu,CHENGALPATTU
BO29103117002,Kottaikadu BO,2912111702,Kudapakkam SO,603304,Chengalpattu HO,Chengalpattu Division,MADURANTAKAM,PM050103037,0,WEG08677,Madurantakam Sub Division,9626234769,T131,12.5102266,79.8849254,Delivery,Kudapakkam SO,,B172,BO,,,,"189/190,Mariamman Koil Street,Kottaikadu",Chennai City Region,,Tamil Nadu,CHENGALPATTU
BO29103117003,Sembulipuram BO,2912111703,Kudapakkam SO,603304,Chengalpattu HO,Chengalpattu Division,CHEYYUR,PM050103039,0,WEG08677,Madurantakam Sub Division,9787424373,T131,12.348735,80.003138,Delivery,Kudapakkam SO,,B173,BO,,,,"Post Office Road,Sembulipuram",Chennai City Region,,Tamil Nadu,CHENGALPATTU
BO29103117004,Vedal BO,2912111704,Kudapakkam SO,603304,Chengalpattu HO,Chengalpattu Division,MADURANTAKA,PM050103041,0,WEG08677,Madurantakam Sub Division,8220863391,T131,12.348728,80.003145,Delivery,Kudapakkam SO,,B174,BO,,,,"PWD Bldg,Cheyur Road,Vedal",Chennai City Region,,Tamil Nadu,CHENGALPATTU
BO29103117005,Vilambur BO,2912111705,Kudapakkam SO,603304,Chengalpattu HO,Chengalpattu Division,CHEYUR,PM050103040,0,WEG08677,Madurantakam Sub Division,8220863391,T131,12.348731,80.003142,Delivery,Kudapakkam SO,,B175,BO,,,,"188,Pillaiyar Koil Street,Vilambur",Chennai City Region,,Tamil Nadu,CHENGALPATTU
BO29103117006,Kolathur B.O,,Melakkottaiyur SO,600127,Tambaram HO,Tambaram Division,TIRUPORUR,,0,,Madurantakam Sub Division,0,,12.798,80.13,Delivery,Melakkottaiyur SO,,,BO,,,,"Kolathur main road, Kolathur",Chennai City Region,,Tamil Nadu,Kanchipuram
BO29103118001,Kadalur BO,2912111801,Kuvathur SO,603305,Chengalpattu HO,Chengalpattu Division,MADURANTAKAM,PM050101027,0,WEG08678,#N/A,8072040428,T131,12.5102236,79.8849284,Delivery,Kuvathur SO,,B181,BO,,,,"36,East Street,Kadalur",Chennai City Region,,Tamil Nadu,CHENGALPATTU
BO29103118002,Kodoovur BO,2912111802,Kuvathur SO,603305,Chengalpattu HO,Chengalpattu Division,CHEYYUR,PM050101028,0,WEG08678,Chengalpattu East Sub Division,8072040428,T131,12.348731,80.003142,Delivery,Kuvathur SO,,B182,BO,,,,"6/384,Main Road,Kodoovur",Chennai City Region,,Tamil Nadu,CHENGALPATTU
BO29103118003,Mugaiyur BO,2912111803,Kuvathur SO,603305,Chengalpattu HO,Chengalpattu Division,MADURANTAKAM,PM050101029,0,WEG08678,Chengalpattu East Sub Division,9941598884,T131,12.5102246,79.8849274,Delivery,Kuvathur SO,,B183,BO,,,,"36/920,Nadu Theru,Mugaiyur",Chennai City Region,,Tamil Nadu,CHENGALPATTU
BO29103118004,Nedumaram BO,2912111804,Kuvathur SO,603305,Chengalpattu HO,Chengalpattu Division,MADURANTAKAM,PM050101030,0,WEG08678,Chengalpattu East Sub Division,9941598884,T131,12.5102256,79.8849264,Delivery,Kuvathur SO,,B184,BO,,,,"Panchayat Bldg,Nedumaram",Chennai City Region,,Tamil Nadu,CHENGALPATTU
BO29103118005,Nerkunapattu BO,2912111805,Kuvathur SO,603305,Chengalpattu HO,Chengalpattu Division,CHENGALPATTU,PM050101031,0,WEG08678,Chengalpattu East Sub Division,9941598884,T131,12.70115,80.10735,Delivery,Kuvathur SO,,B185,BO,,,,"Panchayat Bldg,Nerkunapattu",Chennai City Region,,Tamil Nadu,CHENGALPATTU
BO29103118006,Seekanankuppam BO,2912111806,Kuvathur SO,603305,Chengalpattu HO,Chengalpattu Division,MADURANTAKA,PM050101032,0,WEG08678,Chengalpattu East Sub Division,9381184415,T131,12.5102306,79.8849214,Delivery,Kuvathur SO,,B186,BO,,,,"3/34,Post Office Street,Seekanankuppam",Chennai City Region,,Tamil Nadu,CHENGALPATTU
BO29103118007,Vepancheri BO,2912111807,Kuvathur SO,603305,Chengalpattu HO,Chengalpattu Division,MADURANTAKAM,PM050101033,0,WEG08678,Chengalpattu East Sub Division,9381184415,T131,12.5102266,79.8849254,Delivery,Kuvathur SO,,B187,BO,,,,"4B,Chettiyar Street,Vepancheri",Chennai City Region,,Tamil Nadu,CHENGALPATTU
BO29103118008,Kodoovur B.O,,Kuvathur SO,603305,Chengalpattu HO,Chengalpattu Division,CHEYYUR,,0,,Chengalpattu East Sub Division,0,,,,,Kuvathur SO,,,BO,,,,Kodoovur,Chennai City Region,,Tamil Nadu,Chengalpattu
BO29103118009,Nerkunapattu B.O,,Kuvathur SO,603305,Chengalpattu HO,Chengalpattu Division,CHENGALPATTU,,0,,#N/A,0,,,,,Kuvathur SO,,,BO,,,,Nerkunapattu,Chennai City Region,,Tamil Nadu,Chengalpattu
BO29103119001,Arungunam BO,2912111901,Madurantakam SO,603306,Chengalpattu HO,Chengalpattu Division,MADURANTAKAM,PM050103043,0,WEG21332,#N/A,9751848829,T131,12.4940635,79.9157018,Delivery,Madurantakam SO,,B191,BO,,,,"164,Nadu Street,Arungunam",Chennai City Region,,Tamil Nadu,CHENGALPATTU
BO29103119002,Morapakkam BO,2912111902,Madurantakam SO,603306,Chengalpattu HO,Chengalpattu Division,MADURANTAKAM,PM050103044,0,WEG21332,Madurantakam Sub Division,8940380257,T131,12.5102266,79.8849254,Delivery,Madurantakam SO,,B192,BO,,,,"35,Mariamman Koil Street,Morapakkam",Chennai City Region,,Tamil Nadu,CHENGALPATTU
BO29103119003,Murugambakkam BO,2912111903,Madurantakam SO,603306,Chengalpattu HO,Chengalpattu Division,MADURANTAKAM,PM050103045,0,WEG21332,Chengalpattu East Sub Division,9943508670,T131,12.4910949,79.9584874,Delivery,Madurantakam SO,,B193,BO,,,,"1,Radhakrishnan Street,Murugambakkam",Chennai City Region,,Tamil Nadu,CHENGALPATTU
BO29103119004,New Mambakkam BO,2912111904,Madurantakam SO,603306,Chengalpattu HO,Chengalpattu Division,MADURANTAKA,PM050103046,0,WEG21332,Madurantakam Sub Division,8807161920,T131,12.52485,79.865,Non-Delivery,Madurantakam SO,,B194,BO,,,,"Pondy Road,Murugambakkam",Chennai City Region,,Tamil Nadu,CHENGALPATTU
BO29103119005,Pakkam BO,2912111905,Madurantakam SO,603306,Chengalpattu HO,Chengalpattu Division,MADURANTAKAM,PM050103047,0,WEG21332,Madurantakam Sub Division,9443446708,T131,12.4734174,79.8563087,Delivery,Madurantakam SO,,B195,BO,,,,"27,Mettu Street,Pakkam",Chennai City Region,,Tamil Nadu,CHENGALPATTU
BO29103119006,Perumbakkam BO,2912111906,Madurantakam SO,603306,Chengalpattu HO,Chengalpattu Division,MADURANTAKAM,PM050103048,0,WEG21332,Madurantakam Sub Division,8144138153,T131,12.9000272,80.1958645,Delivery,Madurantakam SO,,B196,BO,,,,"Iyer Street,Main Road,Perumbakkam",Chennai City Region,,Tamil Nadu,CHENGALPATTU
BO29103119007,Thatchur BO,2912111907,Madurantakam SO,603306,Chengalpattu HO,Chengalpattu Division,MADURANTAKA,PM050103050,0,WEG21332,Madurantakam Sub Division,9962430706,T131,12.5102246,79.8849274,Delivery,Madurantakam SO,,B197,BO,,,,"30,Post Office Street,Thatchur",Chennai City Region,,Tamil Nadu,CHENGALPATTU
BO29103119008,Unamalai BO,2912111908,Madurantakam SO,603306,Chengalpattu HO,Chengalpattu Division,MADURANTAKAM,PM050103051,0,WEG21332,Madurantakam Sub Division,9962430706,T131,12.5102246,79.8849274,Delivery,Madurantakam SO,,B198,BO,,,,"Middle Street,Unamalai",Chennai City Region,,Tamil Nadu,CHENGALPATTU
BO29103119009,Vanniarpettai B.O,,Madurantakam SO,603306,Chengalpattu HO,Chengalpattu Division,Maduranthakam,,0,,Madurantakam Sub Division,0,,,,Non-Delivery,Madurantakam SO,,,BO,,,,Vanniarpettai B.O,Chennai City Region,,Tamil Nadu,Kanchipuram
BO29103119010,Veeranakunnam BO,2912111909,Madurantakam SO,603306,Chengalpattu HO,Chengalpattu Division,MADURANTAKAM,PM050103053,0,WEG21332,#N/A,9445250485,T131,12.5102296,79.8849224,Delivery,Madurantakam SO,,B19A,BO,,,,"245,Naidu Street,Veeranakunnam",Chennai City Region,,Tamil Nadu,CHENGALPATTU
BO29103119011,Murugambakkam B.O,,Madurantakam SO,603306,Chengalpattu HO,Chengalpattu Division,MADURANTAKAM,,0,,Chengalpattu East Sub Division,0,,,,,Madurantakam SO,,,BO,,,,Murugambakkam,Chennai City Region,,Tamil Nadu,Chengalpattu
BO29103121001,Kadambadi BO,2912112101,Mamallapuram SO,603104,Chengalpattu HO,Chengalpattu Division,TIRUKALIKUNDRAM,PM050101035,0,WEG21333,#N/A,9789043504,T131,12.63917,80.19266,Delivery,Mamallapuram SO,,B211,BO,,,,"95/1,Kulakkarai Street,Kadambadi",Chennai City Region,,Tamil Nadu,CHENGALPATTU
BO29103121002,Kokilamedu BO,2912112102,Mamallapuram SO,603104,Chengalpattu HO,Chengalpattu Division,TIRUKALILKUNDRAM,PM050101036,0,WEG21333,Chengalpattu East Sub Division,9840227416,T131,12.63917,80.19266,Delivery,Mamallapuram SO,,B212,BO,,,,"8,Gangaiamman Koil Street,Kokilamedu",Chennai City Region,,Tamil Nadu,CHENGALPATTU
BO29103121003,Koothavakkam BO,2912112103,Mamallapuram SO,603104,Chengalpattu HO,Chengalpattu Division,TIRUPORUR,PM050101037,0,WEG21333,Madurantakam Sub Division,9283699065,T131,12.63917,80.19266,Delivery,Mamallapuram SO,,B213,BO,,,,"4/235.OMR Road,Koothavakkam",Chennai City Region,,Tamil Nadu,CHENGALPATTU
BO29103121004,Pattipulam BO,2912112104,Mamallapuram SO,603104,Chengalpattu HO,Chengalpattu Division,TIRUKALIKUNDRAM,PM050101038,0,WEG21333,Chengalpattu East Sub Division,9941069811,T131,12.6645405,80.2042336,Delivery,Mamallapuram SO,,B214,BO,,,,"55,Gramani Street,Pattipulam",Chennai City Region,,Tamil Nadu,CHENGALPATTU
BO29103121005,Perur BO,2912112105,Mamallapuram SO,603104,Chengalpattu HO,Chengalpattu Division,CHENGALPATTU,PM050101039,0,WEG21333,Chengalpattu East Sub Division,9176282330,T131,12.7121476,80.2251553,Delivery,Mamallapuram SO,,B215,BO,,,,"186,Bajanai Koil Street,Perur",Chennai City Region,,Tamil Nadu,CHENGALPATTU
BO29103121006,Poonjeri BO,2912112106,Mamallapuram SO,603104,Chengalpattu HO,Chengalpattu Division,TIRUPORUR,PM050101040,0,WEG21333,Chengalpattu East Sub Division,8807184012,T131,12.6159568,80.1756411,Delivery,Mamallapuram SO,,B216,BO,,,,"24,Bharathi Street,Poonjeri",Chennai City Region,,Tamil Nadu,CHENGALPATTU
BO29103121007,Vadakadambadi BO,2912112107,Mamallapuram SO,603104,Chengalpattu HO,Chengalpattu Division,TIRUKALIKUNDRAM,PM050101041,0,WEG21333,Chengalpattu East Sub Division,9176035905,T131,12.63917,80.19266,Delivery,Mamallapuram SO,,B217,BO,,,,"56,Pillaiyar Koil Street,Vadakadambadi",Chennai City Region,,Tamil Nadu,CHENGALPATTU
BO29103121008,Zamin Paiyanur BO,2912112108,Mamallapuram SO,603104,Chengalpattu HO,Chengalpattu Division,CHENGALPATTU,PM050101042,0,WEG21333,Chengalpattu East Sub Division,9940436692,T131,12.63917,80.19266,Delivery,Mamallapuram SO,,B218,BO,,,,"2/3,Pillaiyar Koil Street,Zamin Paiyanur",Chennai City Region,,Tamil Nadu,CHENGALPATTU